[{"OBJECT_NAME":"STARLINK-30157","OBJECT_ID":"2023-113T","EPOCH":"2026-03-09T22:00:01.999584","MEAN_MOTION":15.24444459,"ECCENTRICITY":0.00013627,"INCLINATION":43.0007,"RA_OF_ASC_NODE":348.8979,"ARG_OF_PERICENTER":302.1923,"MEAN_ANOMALY":3.8526,"EPHEMERIS_TYPE":0,"CLASSIFICATION_TYPE":"U","NORAD_CAT_ID":57512,"ELEMENT_SET_NO":999,"REV_AT_EPOCH":578,"BSTAR":0.060939524,"MEAN_MOTION_DOT":0.01691178,"MEAN_MOTION_DDOT":0},{"OBJECT_NAME":"FLOCK 4BE-28","OBJECT_ID":"2024-149BD","EPOCH":"2026-03-09T17:19:29.847072","MEAN_MOTION":15.4101972,"ECCENTRICITY":0.00035041,"INCLINATION":97.3779,"RA_OF_ASC_NODE":153.2276,"ARG_OF_PERICENTER":284.6486,"MEAN_ANOMALY":75.4372,"EPHEMERIS_TYPE":0,"CLASSIFICATION_TYPE":"U","NORAD_CAT_ID":60519,"ELEMENT_SET_NO":999,"REV_AT_EPOCH":8710,"BSTAR":0.00056831294,"MEAN_MOTION_DOT":0.00023409,"MEAN_MOTION_DDOT":0}]
